QIANFAN-65              
1 62795U 25016L   26194.21795498  .00000086  00000+0  11434-3 0  9999
2 62795  88.9701  80.9898 0016004  87.7297 272.5686 13.51029735 75933
QIANFAN-66              
1 62796U 25016M   26194.24684985  .00000038  00000+0  40117-4 0  9999
2 62796  88.9721  80.9987 0017130  84.0040 276.3063 13.51022781 75982
QIANFAN-67              
1 62797U 25016N   26194.25093035  .00000090  00000+0  12001-3 0  9999
2 62797  88.9711  81.0029 0017049  89.9248 270.3857 13.51011575 75955
QIANFAN-68              
1 62798U 25016P   26194.24255474  .00000101  00000+0  13779-3 0  9992
2 62798  88.9715  81.0565 0017143  88.0610 272.2505 13.51024291 75931
QIANFAN-69              
1 62799U 25016Q   26194.25899344  .00000103  00000+0  14056-3 0  9995
2 62799  88.9694  80.8789 0017870  89.3904 270.9295 13.51018149 75970
QIANFAN-70              
1 62800U 25016R   26194.27552348  .00000105  00000+0  14385-3 0  9997
2 62800  88.9714  81.0601 0017513  80.8173 279.4959 13.51016496 75930
QIANFAN-71              
1 62801U 25016S   26194.27152697  .00000102  00000+0  13902-3 0  9992
2 62801  88.9708  81.0272 0017749  92.5096 267.8087 13.51010827 75938
QIANFAN-72              
1 62802U 25016T   26194.21375282  .00000091  00000+0  12114-3 0  9995
2 62802  88.9699  81.0257 0020925  99.4811 260.8706 13.51013977 75910
QIANFAN-73              
1 63159U 25046A   26194.31479277  .00000108  00000+0  14817-3 0  9995
2 63159  88.9723 297.9688 0013864 221.4158 138.5944 13.51014464 76115
QIANFAN-74              
1 63160U 25046B   26194.29854323  .00000091  00000+0  12219-3 0  9998
2 63160  88.9722 297.8602 0002519 106.7385 253.4043 13.51022067 76174
QIANFAN-75              
1 63161U 25046C   26194.28610774  .00000106  00000+0  14489-3 0  9996
2 63161  88.9724 298.0981 0014847 225.4043 134.5897 13.51014853 76043
QIANFAN-76              
1 63162U 25046D   26194.28194195  .00000113  00000+0  15710-3 0  9997
2 63162  88.9724 298.0784 0012382 224.5927 135.4228 13.51013420 76056
QIANFAN-77              
1 63163U 25046E   26194.25606157  .00000191  00000+0  12892-3 0  9995
2 63163  88.9727 294.3376 0016986 132.8380 227.4227 13.96220700 78103
QIANFAN-78              
1 63164U 25046F   26194.32312943  .00000108  00000+0  14840-3 0  9994
2 63164  88.9723 297.9360 0013686 227.5024 132.4972 13.51008773 76131
QIANFAN-79              
1 63165U 25046G   26194.27783885  .00000105  00000+0  14407-3 0  9992
2 63165  88.9727 298.0560 0013527 225.9399 134.0639 13.51019021 76070
QIANFAN-80              
1 63166U 25046H   26194.29438475  .00000100  00000+0  13669-3 0  9991
2 63166  88.9724 297.7554 0012227 230.1280 129.8796 13.51016234 76237
