{"fetched_at":"2026-07-13T18:16:35.050Z","source":"https://celestrak.org/NORAD/elements/gp.php?GROUP=qianfan&FORMAT=JSON","constellation":"qianfan","records":[{"OBJECT_NAME":"QIANFAN-65","OBJECT_ID":"2025-016L","EPOCH":"2026-07-13T05:13:51.310272","CLASSIFICATION_TYPE":"U","MEAN_MOTION":13.51029735,"ECCENTRICITY":0.0016004,"INCLINATION":88.9701,"RA_OF_ASC_NODE":80.9898,"ARG_OF_PERICENTER":87.7297,"MEAN_ANOMALY":272.5686,"EPHEMERIS_TYPE":0,"NORAD_CAT_ID":62795,"ELEMENT_SET_NO":999,"REV_AT_EPOCH":7593,"BSTAR":0.00011434411,"MEAN_MOTION_DOT":8.6e-7,"MEAN_MOTION_DDOT":0},{"OBJECT_NAME":"QIANFAN-66","OBJECT_ID":"2025-016M","EPOCH":"2026-07-13T05:55:27.827040","CLASSIFICATION_TYPE":"U","MEAN_MOTION":13.51022781,"ECCENTRICITY":0.00171308,"INCLINATION":88.9721,"RA_OF_ASC_NODE":80.9987,"ARG_OF_PERICENTER":84.004,"MEAN_ANOMALY":276.3063,"EPHEMERIS_TYPE":0,"NORAD_CAT_ID":62796,"ELEMENT_SET_NO":999,"REV_AT_EPOCH":7598,"BSTAR":0.00004011684,"MEAN_MOTION_DOT":3.8e-7,"MEAN_MOTION_DDOT":0},{"OBJECT_NAME":"QIANFAN-67","OBJECT_ID":"2025-016N","EPOCH":"2026-07-13T06:01:20.382240","CLASSIFICATION_TYPE":"U","MEAN_MOTION":13.51011575,"ECCENTRICITY":0.00170498,"INCLINATION":88.9711,"RA_OF_ASC_NODE":81.0029,"ARG_OF_PERICENTER":89.9248,"MEAN_ANOMALY":270.3857,"EPHEMERIS_TYPE":0,"NORAD_CAT_ID":62797,"ELEMENT_SET_NO":999,"REV_AT_EPOCH":7595,"BSTAR":0.00012001326,"MEAN_MOTION_DOT":9e-7,"MEAN_MOTION_DDOT":0},{"OBJECT_NAME":"QIANFAN-68","OBJECT_ID":"2025-016P","EPOCH":"2026-07-13T05:49:16.729536","CLASSIFICATION_TYPE":"U","MEAN_MOTION":13.51024291,"ECCENTRICITY":0.00171435,"INCLINATION":88.9715,"RA_OF_ASC_NODE":81.0565,"ARG_OF_PERICENTER":88.061,"MEAN_ANOMALY":272.2505,"EPHEMERIS_TYPE":0,"NORAD_CAT_ID":62798,"ELEMENT_SET_NO":999,"REV_AT_EPOCH":7593,"BSTAR":0.00013778796,"MEAN_MOTION_DOT":0.00000101,"MEAN_MOTION_DDOT":0},{"OBJECT_NAME":"QIANFAN-69","OBJECT_ID":"2025-016Q","EPOCH":"2026-07-13T06:12:57.033216","CLASSIFICATION_TYPE":"U","MEAN_MOTION":13.51018149,"ECCENTRICITY":0.00178709,"INCLINATION":88.9694,"RA_OF_ASC_NODE":80.8789,"ARG_OF_PERICENTER":89.3904,"MEAN_ANOMALY":270.9295,"EPHEMERIS_TYPE":0,"NORAD_CAT_ID":62799,"ELEMENT_SET_NO":999,"REV_AT_EPOCH":7597,"BSTAR":0.00014056086,"MEAN_MOTION_DOT":0.00000103,"MEAN_MOTION_DDOT":0},{"OBJECT_NAME":"QIANFAN-70","OBJECT_ID":"2025-016R","EPOCH":"2026-07-13T06:36:45.228672","CLASSIFICATION_TYPE":"U","MEAN_MOTION":13.51016496,"ECCENTRICITY":0.00175132,"INCLINATION":88.9714,"RA_OF_ASC_NODE":81.0601,"ARG_OF_PERICENTER":80.8173,"MEAN_ANOMALY":279.4959,"EPHEMERIS_TYPE":0,"NORAD_CAT_ID":62800,"ELEMENT_SET_NO":999,"REV_AT_EPOCH":7593,"BSTAR":0.00014384976,"MEAN_MOTION_DOT":0.00000105,"MEAN_MOTION_DDOT":0},{"OBJECT_NAME":"QIANFAN-71","OBJECT_ID":"2025-016S","EPOCH":"2026-07-13T06:30:59.930208","CLASSIFICATION_TYPE":"U","MEAN_MOTION":13.51010827,"ECCENTRICITY":0.00177498,"INCLINATION":88.9708,"RA_OF_ASC_NODE":81.0272,"ARG_OF_PERICENTER":92.5096,"MEAN_ANOMALY":267.8087,"EPHEMERIS_TYPE":0,"NORAD_CAT_ID":62801,"ELEMENT_SET_NO":999,"REV_AT_EPOCH":7593,"BSTAR":0.00013902314,"MEAN_MOTION_DOT":0.00000102,"MEAN_MOTION_DDOT":0},{"OBJECT_NAME":"QIANFAN-72","OBJECT_ID":"2025-016T","EPOCH":"2026-07-13T05:07:48.243648","CLASSIFICATION_TYPE":"U","MEAN_MOTION":13.51013977,"ECCENTRICITY":0.00209258,"INCLINATION":88.9699,"RA_OF_ASC_NODE":81.0257,"ARG_OF_PERICENTER":99.4811,"MEAN_ANOMALY":260.8706,"EPHEMERIS_TYPE":0,"NORAD_CAT_ID":62802,"ELEMENT_SET_NO":999,"REV_AT_EPOCH":7591,"BSTAR":0.00012114073,"MEAN_MOTION_DOT":9.1e-7,"MEAN_MOTION_DDOT":0},{"OBJECT_NAME":"QIANFAN-73","OBJECT_ID":"2025-046A","EPOCH":"2026-07-13T07:33:18.095328","CLASSIFICATION_TYPE":"U","MEAN_MOTION":13.51014464,"ECCENTRICITY":0.0013864,"INCLINATION":88.9723,"RA_OF_ASC_NODE":297.9688,"ARG_OF_PERICENTER":221.4158,"MEAN_ANOMALY":138.5944,"EPHEMERIS_TYPE":0,"NORAD_CAT_ID":63159,"ELEMENT_SET_NO":999,"REV_AT_EPOCH":7611,"BSTAR":0.00014817019,"MEAN_MOTION_DOT":0.00000108,"MEAN_MOTION_DDOT":0},{"OBJECT_NAME":"QIANFAN-74","OBJECT_ID":"2025-046B","EPOCH":"2026-07-13T07:09:54.135072","CLASSIFICATION_TYPE":"U","MEAN_MOTION":13.51022067,"ECCENTRICITY":0.0002519,"INCLINATION":88.9722,"RA_OF_ASC_NODE":297.8602,"ARG_OF_PERICENTER":106.7385,"MEAN_ANOMALY":253.4043,"EPHEMERIS_TYPE":0,"NORAD_CAT_ID":63160,"ELEMENT_SET_NO":999,"REV_AT_EPOCH":7617,"BSTAR":0.00012219232,"MEAN_MOTION_DOT":9.1e-7,"MEAN_MOTION_DDOT":0},{"OBJECT_NAME":"QIANFAN-75","OBJECT_ID":"2025-046C","EPOCH":"2026-07-13T06:51:59.708736","CLASSIFICATION_TYPE":"U","MEAN_MOTION":13.51014853,"ECCENTRICITY":0.00148472,"INCLINATION":88.9724,"RA_OF_ASC_NODE":298.0981,"ARG_OF_PERICENTER":225.4043,"MEAN_ANOMALY":134.5897,"EPHEMERIS_TYPE":0,"NORAD_CAT_ID":63161,"ELEMENT_SET_NO":999,"REV_AT_EPOCH":7604,"BSTAR":0.00014489359,"MEAN_MOTION_DOT":0.00000106,"MEAN_MOTION_DDOT":0},{"OBJECT_NAME":"QIANFAN-76","OBJECT_ID":"2025-046D","EPOCH":"2026-07-13T06:45:59.784480","CLASSIFICATION_TYPE":"U","MEAN_MOTION":13.5101342,"ECCENTRICITY":0.00123822,"INCLINATION":88.9724,"RA_OF_ASC_NODE":298.0784,"ARG_OF_PERICENTER":224.5927,"MEAN_ANOMALY":135.4228,"EPHEMERIS_TYPE":0,"NORAD_CAT_ID":63162,"ELEMENT_SET_NO":999,"REV_AT_EPOCH":7605,"BSTAR":0.0001571028,"MEAN_MOTION_DOT":0.00000113,"MEAN_MOTION_DDOT":0},{"OBJECT_NAME":"QIANFAN-77","OBJECT_ID":"2025-046E","EPOCH":"2026-07-13T06:08:43.719648","CLASSIFICATION_TYPE":"U","MEAN_MOTION":13.962207,"ECCENTRICITY":0.00169862,"INCLINATION":88.9727,"RA_OF_ASC_NODE":294.3376,"ARG_OF_PERICENTER":132.838,"MEAN_ANOMALY":227.4227,"EPHEMERIS_TYPE":0,"NORAD_CAT_ID":63163,"ELEMENT_SET_NO":999,"REV_AT_EPOCH":7810,"BSTAR":0.00012891608,"MEAN_MOTION_DOT":0.00000191,"MEAN_MOTION_DDOT":0},{"OBJECT_NAME":"QIANFAN-78","OBJECT_ID":"2025-046F","EPOCH":"2026-07-13T07:45:18.382752","CLASSIFICATION_TYPE":"U","MEAN_MOTION":13.51008773,"ECCENTRICITY":0.00136866,"INCLINATION":88.9723,"RA_OF_ASC_NODE":297.936,"ARG_OF_PERICENTER":227.5024,"MEAN_ANOMALY":132.4972,"EPHEMERIS_TYPE":0,"NORAD_CAT_ID":63164,"ELEMENT_SET_NO":999,"REV_AT_EPOCH":7613,"BSTAR":0.00014839661,"MEAN_MOTION_DOT":0.00000108,"MEAN_MOTION_DDOT":0},{"OBJECT_NAME":"QIANFAN-79","OBJECT_ID":"2025-046G","EPOCH":"2026-07-13T06:40:05.276640","CLASSIFICATION_TYPE":"U","MEAN_MOTION":13.51019021,"ECCENTRICITY":0.00135274,"INCLINATION":88.9727,"RA_OF_ASC_NODE":298.056,"ARG_OF_PERICENTER":225.9399,"MEAN_ANOMALY":134.0639,"EPHEMERIS_TYPE":0,"NORAD_CAT_ID":63165,"ELEMENT_SET_NO":999,"REV_AT_EPOCH":7607,"BSTAR":0.00014406757,"MEAN_MOTION_DOT":0.00000105,"MEAN_MOTION_DDOT":0},{"OBJECT_NAME":"QIANFAN-80","OBJECT_ID":"2025-046H","EPOCH":"2026-07-13T07:03:54.842400","CLASSIFICATION_TYPE":"U","MEAN_MOTION":13.51016234,"ECCENTRICITY":0.00122278,"INCLINATION":88.9724,"RA_OF_ASC_NODE":297.7554,"ARG_OF_PERICENTER":230.128,"MEAN_ANOMALY":129.8796,"EPHEMERIS_TYPE":0,"NORAD_CAT_ID":63166,"ELEMENT_SET_NO":999,"REV_AT_EPOCH":7623,"BSTAR":0.0001366909,"MEAN_MOTION_DOT":0.000001,"MEAN_MOTION_DDOT":0}]}
